STARLINK-5702           
1 55622U 23020BF  26068.16520314 -.00000715  00000+0 -37877-4 0  9991
2 55622  43.0062 354.2381 0001527 277.6050  82.4619 15.02529652168995
CURIUM ONE              
1 60242U 24128H   26068.68697111  .00012574  00000+0  74107-3 0  9992
2 60242  61.9790 197.7537 0050891 110.7183 249.9377 15.10847276 91418
